CCSDS_OMM_VERS = 2.0
CREATION_DATE  = 
ORIGINATOR     = 

OBJECT_NAME    = STARLINK-36072
OBJECT_ID      = 2025-281J
CENTER_NAME    = EARTH
REF_FRAME      = TEME
TIME_SYSTEM    = UTC
MEAN_ELEMENT_THEORY = SGP/SGP4

EPOCH          = 2025-12-21T14:00:01.999872
MEAN_MOTION    = 15.69981699
ECCENTRICITY   = .00011142
INCLINATION    = 43.0004
RA_OF_ASC_NODE = 68.2952
ARG_OF_PERICENTER = 290.3929
MEAN_ANOMALY   = 209.4787

EPHEMERIS_TYPE = 0
CLASSIFICATION_TYPE = U
NORAD_CAT_ID   = 66856
ELEMENT_SET_NO = 999
REV_AT_EPOCH   = 281
BSTAR          = -.17342618E-1
MEAN_MOTION_DOT = -.1904588E-1
MEAN_MOTION_DDOT = 0

CCSDS_OMM_VERS = 2.0
CREATION_DATE  = 
ORIGINATOR     = 

OBJECT_NAME    = STARLINK-36083
OBJECT_ID      = 2025-281K
CENTER_NAME    = EARTH
REF_FRAME      = TEME
TIME_SYSTEM    = UTC
MEAN_ELEMENT_THEORY = SGP/SGP4

EPOCH          = 2025-12-21T14:00:01.999872
MEAN_MOTION    = 15.69979197
ECCENTRICITY   = .00011248
INCLINATION    = 43.0002
RA_OF_ASC_NODE = 68.2903
ARG_OF_PERICENTER = 290.9731
MEAN_ANOMALY   = 210.8171

EPHEMERIS_TYPE = 0
CLASSIFICATION_TYPE = U
NORAD_CAT_ID   = 66857
ELEMENT_SET_NO = 999
REV_AT_EPOCH   = 281
BSTAR          = -.17315233E-1
MEAN_MOTION_DOT = -.190175E-1
MEAN_MOTION_DDOT = 0

CCSDS_OMM_VERS = 2.0
CREATION_DATE  = 
ORIGINATOR     = 

OBJECT_NAME    = STARLINK-35118
OBJECT_ID      = 2025-281L
CENTER_NAME    = EARTH
REF_FRAME      = TEME
TIME_SYSTEM    = UTC
MEAN_ELEMENT_THEORY = SGP/SGP4

EPOCH          = 2025-12-21T14:00:01.999872
MEAN_MOTION    = 15.69977624
ECCENTRICITY   = .00010995
INCLINATION    = 43.0005
RA_OF_ASC_NODE = 68.2855
ARG_OF_PERICENTER = 288.2191
MEAN_ANOMALY   = 215.4879

EPHEMERIS_TYPE = 0
CLASSIFICATION_TYPE = U
NORAD_CAT_ID   = 66858
ELEMENT_SET_NO = 999
REV_AT_EPOCH   = 260
BSTAR          = -.172819E-1
MEAN_MOTION_DOT = -.1898372E-1
MEAN_MOTION_DDOT = 0

CCSDS_OMM_VERS = 2.0
CREATION_DATE  = 
ORIGINATOR     = 

OBJECT_NAME    = STARLINK-35646
OBJECT_ID      = 2025-281M
CENTER_NAME    = EARTH
REF_FRAME      = TEME
TIME_SYSTEM    = UTC
MEAN_ELEMENT_THEORY = SGP/SGP4

EPOCH          = 2025-12-21T14:00:01.999872
MEAN_MOTION    = 15.69978108
ECCENTRICITY   = .00011118
INCLINATION    = 43.0004
RA_OF_ASC_NODE = 68.2811
ARG_OF_PERICENTER = 290.8825
MEAN_ANOMALY   = 214.7405

EPHEMERIS_TYPE = 0
CLASSIFICATION_TYPE = U
NORAD_CAT_ID   = 66859
ELEMENT_SET_NO = 999
REV_AT_EPOCH   = 281
BSTAR          = -.17288142E-1
MEAN_MOTION_DOT = -.1899023E-1
MEAN_MOTION_DDOT = 0

CCSDS_OMM_VERS = 2.0
CREATION_DATE  = 
ORIGINATOR     = 

OBJECT_NAME    = STARLINK-35987
OBJECT_ID      = 2025-281N
CENTER_NAME    = EARTH
REF_FRAME      = TEME
TIME_SYSTEM    = UTC
MEAN_ELEMENT_THEORY = SGP/SGP4

EPOCH          = 2025-12-21T14:00:01.999872
MEAN_MOTION    = 15.69978611
ECCENTRICITY   = .000101
INCLINATION    = 43.0006
RA_OF_ASC_NODE = 68.2572
ARG_OF_PERICENTER = 282.6635
MEAN_ANOMALY   = 232.5469

EPHEMERIS_TYPE = 0
CLASSIFICATION_TYPE = U
NORAD_CAT_ID   = 66860
ELEMENT_SET_NO = 999
REV_AT_EPOCH   = 281
BSTAR          = -.17308252E-1
MEAN_MOTION_DOT = -.1900947E-1
MEAN_MOTION_DDOT = 0

CCSDS_OMM_VERS = 2.0
CREATION_DATE  = 
ORIGINATOR     = 

OBJECT_NAME    = STARLINK-35991
OBJECT_ID      = 2025-281P
CENTER_NAME    = EARTH
REF_FRAME      = TEME
TIME_SYSTEM    = UTC
MEAN_ELEMENT_THEORY = SGP/SGP4

EPOCH          = 2025-12-21T14:00:01.999872
MEAN_MOTION    = 15.69975196
ECCENTRICITY   = .00010686
INCLINATION    = 43.0005
RA_OF_ASC_NODE = 68.2719
ARG_OF_PERICENTER = 285.2849
MEAN_ANOMALY   = 224.1718

EPHEMERIS_TYPE = 0
CLASSIFICATION_TYPE = U
NORAD_CAT_ID   = 66861
ELEMENT_SET_NO = 999
REV_AT_EPOCH   = 281
BSTAR          = -.17223339E-1
MEAN_MOTION_DOT = -.1892469E-1
MEAN_MOTION_DDOT = 0

CCSDS_OMM_VERS = 2.0
CREATION_DATE  = 
ORIGINATOR     = 

OBJECT_NAME    = STARLINK-35974
OBJECT_ID      = 2025-281Q
CENTER_NAME    = EARTH
REF_FRAME      = TEME
TIME_SYSTEM    = UTC
MEAN_ELEMENT_THEORY = SGP/SGP4

EPOCH          = 2025-12-21T14:00:01.999872
MEAN_MOTION    = 15.69978225
ECCENTRICITY   = .00010925
INCLINATION    = 43.0018
RA_OF_ASC_NODE = 68.2761
ARG_OF_PERICENTER = 289.3412
MEAN_ANOMALY   = 218.1995

EPHEMERIS_TYPE = 0
CLASSIFICATION_TYPE = U
NORAD_CAT_ID   = 66862
ELEMENT_SET_NO = 999
REV_AT_EPOCH   = 271
BSTAR          = -.17294304E-1
MEAN_MOTION_DOT = -.1899617E-1
MEAN_MOTION_DDOT = 0

CCSDS_OMM_VERS = 2.0
CREATION_DATE  = 
ORIGINATOR     = 

OBJECT_NAME    = STARLINK-36134
OBJECT_ID      = 2025-281R
CENTER_NAME    = EARTH
REF_FRAME      = TEME
TIME_SYSTEM    = UTC
MEAN_ELEMENT_THEORY = SGP/SGP4

EPOCH          = 2025-12-21T14:00:01.999872
MEAN_MOTION    = 15.69975657
ECCENTRICITY   = .00010751
INCLINATION    = 43.0003
RA_OF_ASC_NODE = 68.2673
ARG_OF_PERICENTER = 285.7848
MEAN_ANOMALY   = 225.5896

EPHEMERIS_TYPE = 0
CLASSIFICATION_TYPE = U
NORAD_CAT_ID   = 66863
ELEMENT_SET_NO = 999
REV_AT_EPOCH   = 281
BSTAR          = -.17238881E-1
MEAN_MOTION_DOT = -.1894022E-1
MEAN_MOTION_DDOT = 0

CCSDS_OMM_VERS = 2.0
CREATION_DATE  = 
ORIGINATOR     = 

OBJECT_NAME    = STARLINK-36070
OBJECT_ID      = 2025-281S
CENTER_NAME    = EARTH
REF_FRAME      = TEME
TIME_SYSTEM    = UTC
MEAN_ELEMENT_THEORY = SGP/SGP4

EPOCH          = 2025-12-21T14:00:01.999872
MEAN_MOTION    = 15.69976989
ECCENTRICITY   = .00011728
INCLINATION    = 43.0004
RA_OF_ASC_NODE = 68.2616
ARG_OF_PERICENTER = 288.2756
MEAN_ANOMALY   = 225.0166

EPHEMERIS_TYPE = 0
CLASSIFICATION_TYPE = U
NORAD_CAT_ID   = 66864
ELEMENT_SET_NO = 999
REV_AT_EPOCH   = 284
BSTAR          = -.17272939E-1
MEAN_MOTION_DOT = -.1897505E-1
MEAN_MOTION_DDOT = 0

CCSDS_OMM_VERS = 2.0
CREATION_DATE  = 
ORIGINATOR     = 

OBJECT_NAME    = STARLINK-36117
OBJECT_ID      = 2025-281T
CENTER_NAME    = EARTH
REF_FRAME      = TEME
TIME_SYSTEM    = UTC
MEAN_ELEMENT_THEORY = SGP/SGP4

EPOCH          = 2025-12-21T14:00:01.999872
MEAN_MOTION    = 15.69978594
ECCENTRICITY   = .00011371
INCLINATION    = 43.0006
RA_OF_ASC_NODE = 68.2528
ARG_OF_PERICENTER = 283.3324
MEAN_ANOMALY   = 233.7938

EPHEMERIS_TYPE = 0
CLASSIFICATION_TYPE = U
NORAD_CAT_ID   = 66865
ELEMENT_SET_NO = 999
REV_AT_EPOCH   = 281
BSTAR          = -.17293427E-1
MEAN_MOTION_DOT = -.1899591E-1
MEAN_MOTION_DDOT = 0

CCSDS_OMM_VERS = 2.0
CREATION_DATE  = 
ORIGINATOR     = 

OBJECT_NAME    = STARLINK-36126
OBJECT_ID      = 2025-281U
CENTER_NAME    = EARTH
REF_FRAME      = TEME
TIME_SYSTEM    = UTC
MEAN_ELEMENT_THEORY = SGP/SGP4

EPOCH          = 2025-12-21T14:00:01.999872
MEAN_MOTION    = 15.69970109
ECCENTRICITY   = .00010886
INCLINATION    = 43.0005
RA_OF_ASC_NODE = 68.2476
ARG_OF_PERICENTER = 290.0181
MEAN_ANOMALY   = 229.0316

EPHEMERIS_TYPE = 0
CLASSIFICATION_TYPE = U
NORAD_CAT_ID   = 66866
ELEMENT_SET_NO = 999
REV_AT_EPOCH   = 284
BSTAR          = -.17226086E-1
MEAN_MOTION_DOT = -.1892391E-1
MEAN_MOTION_DDOT = 0

CCSDS_OMM_VERS = 2.0
CREATION_DATE  = 
ORIGINATOR     = 

OBJECT_NAME    = STARLINK-36101
OBJECT_ID      = 2025-281V
CENTER_NAME    = EARTH
REF_FRAME      = TEME
TIME_SYSTEM    = UTC
MEAN_ELEMENT_THEORY = SGP/SGP4

EPOCH          = 2025-12-21T14:00:01.999872
MEAN_MOTION    = 15.69942785
ECCENTRICITY   = .00008931
INCLINATION    = 43.0006
RA_OF_ASC_NODE = 68.2432
ARG_OF_PERICENTER = 282.1183
MEAN_ANOMALY   = 238.8701

EPHEMERIS_TYPE = 0
CLASSIFICATION_TYPE = U
NORAD_CAT_ID   = 66867
ELEMENT_SET_NO = 999
REV_AT_EPOCH   = 265
BSTAR          = -.16940314E-1
MEAN_MOTION_DOT = -.1862431E-1
MEAN_MOTION_DDOT = 0

