STARLINK-36072          
1 66856U 25281J   25355.58335648 -.01904588  00000+0 -17343-1 0  9996
2 66856  43.0004  68.2952 0001114 290.3929 209.4787 15.69981699  2818
STARLINK-36083          
1 66857U 25281K   25355.58335648 -.01901750  00000+0 -17315-1 0  9994
2 66857  43.0002  68.2903 0001124 290.9731 210.8171 15.69979197  2814
STARLINK-35118          
1 66858U 25281L   25355.58335648 -.01898372  00000+0 -17282-1 0  9993
2 66858  43.0005  68.2855 0001099 288.2191 215.4879 15.69977624  2601
STARLINK-35646          
1 66859U 25281M   25355.58335648 -.01899023  00000+0 -17288-1 0  9994
2 66859  43.0004  68.2811 0001111 290.8825 214.7405 15.69978108  2819
STARLINK-35987          
1 66860U 25281N   25355.58335648 -.01900947  00000+0 -17308-1 0  9997
2 66860  43.0006  68.2572 0001010 282.6635 232.5469 15.69978611  2810
STARLINK-35991          
1 66861U 25281P   25355.58335648 -.01892469  00000+0 -17223-1 0  9993
2 66861  43.0005  68.2719 0001068 285.2849 224.1718 15.69975196  2811
STARLINK-35974          
1 66862U 25281Q   25355.58335648 -.01899617  00000+0 -17294-1 0  9994
2 66862  43.0018  68.2761 0001092 289.3412 218.1995 15.69978225  2716
STARLINK-36134          
1 66863U 25281R   25355.58335648 -.01894022  00000+0 -17239-1 0  9999
2 66863  43.0003  68.2673 0001075 285.7848 225.5896 15.69975657  2816
STARLINK-36070          
1 66864U 25281S   25355.58335648 -.01897505  00000+0 -17273-1 0  9997
2 66864  43.0004  68.2616 0001172 288.2756 225.0166 15.69976989  2846
STARLINK-36117          
1 66865U 25281T   25355.58335648 -.01899591  00000+0 -17293-1 0  9997
2 66865  43.0006  68.2528 0001137 283.3324 233.7938 15.69978594  2813
STARLINK-36126          
1 66866U 25281U   25355.58335648 -.01892391  00000+0 -17226-1 0  9995
2 66866  43.0005  68.2476 0001088 290.0181 229.0316 15.69970109  2841
STARLINK-36101          
1 66867U 25281V   25355.58335648 -.01862431  00000+0 -16940-1 0  9990
2 66867  43.0006  68.2432 0000893 282.1183 238.8701 15.69942785  2656
